<?xml version="1.0" encoding="UTF-8" standalone="no" ?><gpx xmlns="http://www.topografix.com/GPX/1/1" xmlns:xsi="http://www.w3.org/2001/XMLSchema-instance" creator="Graphhopper version 11.0" version="1.1" xmlns:gh="https://graphhopper.com/public/schema/gpx/1.1">
<metadata><copyright author="OpenStreetMap contributors"/><link href="http://graphhopper.com"><text>GraphHopper GPX</text></link><time>2025-09-04T15:33:20Z</time></metadata>
<trk><name></name><trkseg>
<trkpt lat="54.150929" lon="-4.482321"><time>2025-09-04T15:33:20Z</time></trkpt>
<trkpt lat="54.150829" lon="-4.482474"></trkpt>
<trkpt lat="54.150153" lon="-4.483351"></trkpt>
<trkpt lat="54.149947" lon="-4.483569"><time>2025-09-04T15:33:31Z</time></trkpt>
<trkpt lat="54.150219" lon="-4.484391"><time>2025-09-04T15:33:36Z</time></trkpt>
<trkpt lat="54.149647" lon="-4.485586"></trkpt>
<trkpt lat="54.149593" lon="-4.485787"></trkpt>
<trkpt lat="54.149482" lon="-4.486334"></trkpt>
<trkpt lat="54.149408" lon="-4.486994"></trkpt>
<trkpt lat="54.149414" lon="-4.487433"></trkpt>
<trkpt lat="54.149521" lon="-4.488552"></trkpt>
<trkpt lat="54.149509" lon="-4.488724"></trkpt>
<trkpt lat="54.149486" lon="-4.488795"></trkpt>
<trkpt lat="54.149446" lon="-4.488841"><time>2025-09-04T15:34:01Z</time></trkpt>
<trkpt lat="54.149565" lon="-4.489183"></trkpt>
<trkpt lat="54.149613" lon="-4.489913"></trkpt>
<trkpt lat="54.149743" lon="-4.490797"></trkpt>
<trkpt lat="54.149981" lon="-4.492136"></trkpt>
<trkpt lat="54.150149" lon="-4.493759"></trkpt>
<trkpt lat="54.150313" lon="-4.494776"></trkpt>
<trkpt lat="54.150518" lon="-4.495637"></trkpt>
<trkpt lat="54.150613" lon="-4.496215"></trkpt>
<trkpt lat="54.150667" lon="-4.496864"></trkpt>
<trkpt lat="54.150711" lon="-4.497208"></trkpt>
<trkpt lat="54.150802" lon="-4.497597"></trkpt>
<trkpt lat="54.150984" lon="-4.498122"></trkpt>
<trkpt lat="54.151223" lon="-4.498485"></trkpt>
<trkpt lat="54.151477" lon="-4.498801"></trkpt>
<trkpt lat="54.15182" lon="-4.499059"></trkpt>
<trkpt lat="54.152515" lon="-4.499734"></trkpt>
<trkpt lat="54.153502" lon="-4.500771"></trkpt>
<trkpt lat="54.153757" lon="-4.500889"></trkpt>
<trkpt lat="54.154196" lon="-4.500919"></trkpt>
<trkpt lat="54.155263" lon="-4.501102"></trkpt>
<trkpt lat="54.155693" lon="-4.501265"><time>2025-09-04T15:35:40Z</time></trkpt>
<trkpt lat="54.155964" lon="-4.501784"></trkpt>
<trkpt lat="54.159729" lon="-4.503926"></trkpt>
<trkpt lat="54.160507" lon="-4.50432"></trkpt>
<trkpt lat="54.161341" lon="-4.504982"><time>2025-09-04T15:36:24Z</time></trkpt>
<trkpt lat="54.161337" lon="-4.50508"></trkpt>
<trkpt lat="54.161384" lon="-4.505136"></trkpt>
<trkpt lat="54.161437" lon="-4.505096"></trkpt>
<trkpt lat="54.161444" lon="-4.505"></trkpt>
<trkpt lat="54.161582" lon="-4.504948"></trkpt>
<trkpt lat="54.16196" lon="-4.504883"></trkpt>
<trkpt lat="54.162506" lon="-4.504897"></trkpt>
<trkpt lat="54.162926" lon="-4.504997"></trkpt>
<trkpt lat="54.163273" lon="-4.505151"></trkpt>
<trkpt lat="54.163657" lon="-4.50537"></trkpt>
<trkpt lat="54.164037" lon="-4.505687"></trkpt>
<trkpt lat="54.166418" lon="-4.50739"></trkpt>
<trkpt lat="54.166599" lon="-4.507472"></trkpt>
<trkpt lat="54.166768" lon="-4.507509"><time>2025-09-04T15:37:05Z</time></trkpt>
<trkpt lat="54.166773" lon="-4.507583"></trkpt>
<trkpt lat="54.166805" lon="-4.507636"></trkpt>
<trkpt lat="54.166849" lon="-4.507644"></trkpt>
<trkpt lat="54.166886" lon="-4.507603"></trkpt>
<trkpt lat="54.166958" lon="-4.507754"></trkpt>
<trkpt lat="54.167028" lon="-4.507822"></trkpt>
<trkpt lat="54.167981" lon="-4.508493"></trkpt>
<trkpt lat="54.168197" lon="-4.508556"></trkpt>
<trkpt lat="54.168413" lon="-4.508557"></trkpt>
<trkpt lat="54.168778" lon="-4.508447"><time>2025-09-04T15:37:20Z</time></trkpt>
<trkpt lat="54.16883" lon="-4.508554"></trkpt>
<trkpt lat="54.168909" lon="-4.508584"></trkpt>
<trkpt lat="54.168949" lon="-4.508563"></trkpt>
<trkpt lat="54.169057" lon="-4.508885"></trkpt>
<trkpt lat="54.169231" lon="-4.509177"></trkpt>
<trkpt lat="54.169416" lon="-4.509345"></trkpt>
<trkpt lat="54.169563" lon="-4.509424"></trkpt>
<trkpt lat="54.170287" lon="-4.509662"></trkpt>
<trkpt lat="54.17087" lon="-4.50996"></trkpt>
<trkpt lat="54.171631" lon="-4.510427"></trkpt>
<trkpt lat="54.172673" lon="-4.511503"></trkpt>
<trkpt lat="54.172899" lon="-4.511691"></trkpt>
<trkpt lat="54.173588" lon="-4.512182"></trkpt>
<trkpt lat="54.173817" lon="-4.512475"></trkpt>
<trkpt lat="54.174578" lon="-4.513785"></trkpt>
<trkpt lat="54.176801" lon="-4.516985"></trkpt>
<trkpt lat="54.177704" lon="-4.517979"></trkpt>
<trkpt lat="54.179062" lon="-4.519272"></trkpt>
<trkpt lat="54.179728" lon="-4.520019"></trkpt>
<trkpt lat="54.179956" lon="-4.520237"></trkpt>
<trkpt lat="54.18021" lon="-4.520404"></trkpt>
<trkpt lat="54.180743" lon="-4.520691"></trkpt>
<trkpt lat="54.180897" lon="-4.520798"></trkpt>
<trkpt lat="54.181101" lon="-4.521004"></trkpt>
<trkpt lat="54.181403" lon="-4.521652"></trkpt>
<trkpt lat="54.181604" lon="-4.522032"></trkpt>
<trkpt lat="54.181656" lon="-4.522172"></trkpt>
<trkpt lat="54.181696" lon="-4.522507"></trkpt>
<trkpt lat="54.181726" lon="-4.52324"></trkpt>
<trkpt lat="54.18179" lon="-4.523961"></trkpt>
<trkpt lat="54.182053" lon="-4.525116"></trkpt>
<trkpt lat="54.18227" lon="-4.526279"></trkpt>
<trkpt lat="54.182372" lon="-4.526605"></trkpt>
<trkpt lat="54.182683" lon="-4.527226"></trkpt>
<trkpt lat="54.182893" lon="-4.527764"></trkpt>
<trkpt lat="54.183044" lon="-4.528214"></trkpt>
<trkpt lat="54.183767" lon="-4.529597"></trkpt>
<trkpt lat="54.184455" lon="-4.530626"></trkpt>
<trkpt lat="54.184789" lon="-4.531166"></trkpt>
<trkpt lat="54.184922" lon="-4.531399"></trkpt>
<trkpt lat="54.184976" lon="-4.531569"></trkpt>
<trkpt lat="54.185069" lon="-4.53215"></trkpt>
<trkpt lat="54.185176" lon="-4.532686"></trkpt>
<trkpt lat="54.185302" lon="-4.533647"></trkpt>
<trkpt lat="54.185441" lon="-4.534416"></trkpt>
<trkpt lat="54.185511" lon="-4.53472"></trkpt>
<trkpt lat="54.185718" lon="-4.535133"></trkpt>
<trkpt lat="54.185879" lon="-4.53552"></trkpt>
<trkpt lat="54.185991" lon="-4.536048"></trkpt>
<trkpt lat="54.186035" lon="-4.536477"></trkpt>
<trkpt lat="54.18607" lon="-4.537567"></trkpt>
<trkpt lat="54.186134" lon="-4.537842"></trkpt>
<trkpt lat="54.186268" lon="-4.538217"></trkpt>
<trkpt lat="54.187277" lon="-4.540504"></trkpt>
<trkpt lat="54.187338" lon="-4.540701"></trkpt>
<trkpt lat="54.187375" lon="-4.540986"></trkpt>
<trkpt lat="54.187353" lon="-4.541203"></trkpt>
<trkpt lat="54.187295" lon="-4.541533"></trkpt>
<trkpt lat="54.187281" lon="-4.541809"></trkpt>
<trkpt lat="54.187304" lon="-4.542151"></trkpt>
<trkpt lat="54.187411" lon="-4.542607"></trkpt>
<trkpt lat="54.18744" lon="-4.542822"></trkpt>
<trkpt lat="54.187475" lon="-4.543901"></trkpt>
<trkpt lat="54.187494" lon="-4.544143"></trkpt>
<trkpt lat="54.187725" lon="-4.545342"></trkpt>
<trkpt lat="54.18775" lon="-4.54552"></trkpt>
<trkpt lat="54.187747" lon="-4.54579"></trkpt>
<trkpt lat="54.187606" lon="-4.546438"></trkpt>
<trkpt lat="54.187465" lon="-4.546859"></trkpt>
<trkpt lat="54.187341" lon="-4.547504"></trkpt>
<trkpt lat="54.187233" lon="-4.548375"></trkpt>
<trkpt lat="54.187161" lon="-4.549341"></trkpt>
<trkpt lat="54.187178" lon="-4.549637"></trkpt>
<trkpt lat="54.187255" lon="-4.550027"></trkpt>
<trkpt lat="54.187382" lon="-4.55037"></trkpt>
<trkpt lat="54.187683" lon="-4.550803"></trkpt>
<trkpt lat="54.187827" lon="-4.551105"></trkpt>
<trkpt lat="54.188054" lon="-4.552378"></trkpt>
<trkpt lat="54.188101" lon="-4.552945"></trkpt>
<trkpt lat="54.188123" lon="-4.554251"></trkpt>
<trkpt lat="54.188183" lon="-4.554946"></trkpt>
<trkpt lat="54.188311" lon="-4.555581"></trkpt>
<trkpt lat="54.188914" lon="-4.55795"></trkpt>
<trkpt lat="54.188939" lon="-4.558239"></trkpt>
<trkpt lat="54.188901" lon="-4.558376"></trkpt>
<trkpt lat="54.188852" lon="-4.558455"></trkpt>
<trkpt lat="54.188236" lon="-4.559225"></trkpt>
<trkpt lat="54.188041" lon="-4.559428"></trkpt>
<trkpt lat="54.187442" lon="-4.559939"></trkpt>
<trkpt lat="54.186727" lon="-4.560775"></trkpt>
<trkpt lat="54.186364" lon="-4.560965"></trkpt>
<trkpt lat="54.186227" lon="-4.561099"></trkpt>
<trkpt lat="54.186103" lon="-4.561306"></trkpt>
<trkpt lat="54.185908" lon="-4.561861"></trkpt>
<trkpt lat="54.1848" lon="-4.563692"></trkpt>
<trkpt lat="54.184098" lon="-4.564961"></trkpt>
<trkpt lat="54.184027" lon="-4.565149"></trkpt>
<trkpt lat="54.18389" lon="-4.56576"></trkpt>
<trkpt lat="54.183803" lon="-4.565934"><time>2025-09-04T15:41:30Z</time></trkpt>
<trkpt lat="54.184257" lon="-4.566916"></trkpt>
<trkpt lat="54.184487" lon="-4.567454"></trkpt>
<trkpt lat="54.185359" lon="-4.569685"></trkpt>
<trkpt lat="54.186012" lon="-4.571252"></trkpt>
<trkpt lat="54.187584" lon="-4.575138"></trkpt>
<trkpt lat="54.187914" lon="-4.575924"></trkpt>
<trkpt lat="54.188491" lon="-4.577141"></trkpt>
<trkpt lat="54.188655" lon="-4.577523"></trkpt>
<trkpt lat="54.188832" lon="-4.57796"></trkpt>
<trkpt lat="54.18957" lon="-4.580017"></trkpt>
<trkpt lat="54.190535" lon="-4.582469"></trkpt>
<trkpt lat="54.191054" lon="-4.583603"></trkpt>
<trkpt lat="54.191693" lon="-4.584753"></trkpt>
<trkpt lat="54.191954" lon="-4.585269"></trkpt>
<trkpt lat="54.192076" lon="-4.585539"></trkpt>
<trkpt lat="54.192161" lon="-4.585814"></trkpt>
<trkpt lat="54.192581" lon="-4.58768"></trkpt>
<trkpt lat="54.1927" lon="-4.588396"></trkpt>
<trkpt lat="54.192709" lon="-4.588866"></trkpt>
<trkpt lat="54.192621" lon="-4.589451"></trkpt>
<trkpt lat="54.192625" lon="-4.590041"></trkpt>
<trkpt lat="54.192677" lon="-4.590526"></trkpt>
<trkpt lat="54.192802" lon="-4.591121"></trkpt>
<trkpt lat="54.193066" lon="-4.592178"></trkpt>
<trkpt lat="54.193232" lon="-4.592953"></trkpt>
<trkpt lat="54.193537" lon="-4.595046"></trkpt>
<trkpt lat="54.193761" lon="-4.596215"></trkpt>
<trkpt lat="54.193808" lon="-4.596638"></trkpt>
<trkpt lat="54.193815" lon="-4.598178"></trkpt>
<trkpt lat="54.193842" lon="-4.598492"></trkpt>
<trkpt lat="54.193917" lon="-4.59891"></trkpt>
<trkpt lat="54.194417" lon="-4.600866"></trkpt>
<trkpt lat="54.194552" lon="-4.601281"></trkpt>
<trkpt lat="54.194696" lon="-4.601611"></trkpt>
<trkpt lat="54.195147" lon="-4.602422"></trkpt>
<trkpt lat="54.195825" lon="-4.603876"></trkpt>
<trkpt lat="54.19668" lon="-4.605423"></trkpt>
<trkpt lat="54.196738" lon="-4.605565"></trkpt>
<trkpt lat="54.19683" lon="-4.605894"></trkpt>
<trkpt lat="54.196869" lon="-4.60622"></trkpt>
<trkpt lat="54.197035" lon="-4.608728"></trkpt>
<trkpt lat="54.197325" lon="-4.61172"></trkpt>
<trkpt lat="54.197388" lon="-4.612709"><time>2025-09-04T15:44:15Z</time></trkpt>
<trkpt lat="54.197488" lon="-4.612779"></trkpt>
<trkpt lat="54.197567" lon="-4.612892"></trkpt>
<trkpt lat="54.197703" lon="-4.613183"></trkpt>
<trkpt lat="54.197761" lon="-4.613435"><time>2025-09-04T15:44:27Z</time></trkpt>
<trkpt lat="54.197898" lon="-4.613337"></trkpt>
<trkpt lat="54.197977" lon="-4.61332"></trkpt>
<trkpt lat="54.198322" lon="-4.613374"></trkpt>
<trkpt lat="54.198377" lon="-4.613425"><time>2025-09-04T15:44:43Z</time></trkpt>
<trkpt lat="54.198322" lon="-4.613374"></trkpt>
<trkpt lat="54.197977" lon="-4.61332"></trkpt>
<trkpt lat="54.197898" lon="-4.613337"></trkpt>
<trkpt lat="54.197761" lon="-4.613435"><time>2025-09-04T15:44:59Z</time></trkpt>
<trkpt lat="54.197703" lon="-4.613183"></trkpt>
<trkpt lat="54.197567" lon="-4.612892"></trkpt>
<trkpt lat="54.197488" lon="-4.612779"></trkpt>
<trkpt lat="54.197388" lon="-4.612709"><time>2025-09-04T15:45:11Z</time></trkpt>
<trkpt lat="54.197464" lon="-4.614153"></trkpt>
<trkpt lat="54.197499" lon="-4.614518"></trkpt>
<trkpt lat="54.19762" lon="-4.615266"></trkpt>
<trkpt lat="54.197692" lon="-4.615547"></trkpt>
<trkpt lat="54.198007" lon="-4.617386"></trkpt>
<trkpt lat="54.19814" lon="-4.618086"></trkpt>
<trkpt lat="54.198233" lon="-4.618437"></trkpt>
<trkpt lat="54.198349" lon="-4.618781"></trkpt>
<trkpt lat="54.199005" lon="-4.620243"></trkpt>
<trkpt lat="54.199598" lon="-4.621496"></trkpt>
<trkpt lat="54.200278" lon="-4.623059"></trkpt>
<trkpt lat="54.200769" lon="-4.624127"></trkpt>
<trkpt lat="54.200957" lon="-4.624576"></trkpt>
<trkpt lat="54.201501" lon="-4.626006"></trkpt>
<trkpt lat="54.20274" lon="-4.629088"><time>2025-09-04T15:45:48Z</time></trkpt>
<trkpt lat="54.202887" lon="-4.629146"></trkpt>
<trkpt lat="54.204128" lon="-4.629183"></trkpt>
<trkpt lat="54.205241" lon="-4.629271"></trkpt>
<trkpt lat="54.205365" lon="-4.629307"></trkpt>
<trkpt lat="54.205491" lon="-4.629389"></trkpt>
<trkpt lat="54.20587" lon="-4.629776"></trkpt>
<trkpt lat="54.206826" lon="-4.630525"></trkpt>
<trkpt lat="54.207283" lon="-4.630683"></trkpt>
<trkpt lat="54.207574" lon="-4.63074"></trkpt>
<trkpt lat="54.207892" lon="-4.630734"></trkpt>
<trkpt lat="54.208233" lon="-4.630661"></trkpt>
<trkpt lat="54.210232" lon="-4.630358"><time>2025-09-04T15:46:24Z</time></trkpt>
<trkpt lat="54.21026" lon="-4.630565"></trkpt>
<trkpt lat="54.210238" lon="-4.630693"><time>2025-09-04T15:46:25Z</time></trkpt>
<trkpt lat="54.210113" lon="-4.630849"></trkpt>
<trkpt lat="54.210031" lon="-4.630916"></trkpt>
<trkpt lat="54.209434" lon="-4.6312"></trkpt>
<trkpt lat="54.209305" lon="-4.631294"></trkpt>
<trkpt lat="54.209171" lon="-4.631438"></trkpt>
<trkpt lat="54.209037" lon="-4.631621"></trkpt>
<trkpt lat="54.208903" lon="-4.631873"></trkpt>
<trkpt lat="54.208788" lon="-4.632142"></trkpt>
<trkpt lat="54.208704" lon="-4.632448"></trkpt>
<trkpt lat="54.208674" lon="-4.632622"></trkpt>
<trkpt lat="54.208667" lon="-4.632954"></trkpt>
<trkpt lat="54.208701" lon="-4.633241"></trkpt>
<trkpt lat="54.208766" lon="-4.633525"></trkpt>
<trkpt lat="54.208921" lon="-4.634002"></trkpt>
<trkpt lat="54.209239" lon="-4.634839"></trkpt>
<trkpt lat="54.209382" lon="-4.63527"></trkpt>
<trkpt lat="54.209754" lon="-4.636603"></trkpt>
<trkpt lat="54.210131" lon="-4.638216"></trkpt>
<trkpt lat="54.21026" lon="-4.639025"></trkpt>
<trkpt lat="54.210763" lon="-4.642807"></trkpt>
<trkpt lat="54.210805" lon="-4.642955"></trkpt>
<trkpt lat="54.210922" lon="-4.64311"></trkpt>
<trkpt lat="54.211005" lon="-4.643163"></trkpt>
<trkpt lat="54.211941" lon="-4.643446"></trkpt>
<trkpt lat="54.212735" lon="-4.643756"></trkpt>
<trkpt lat="54.212883" lon="-4.643907"></trkpt>
<trkpt lat="54.212931" lon="-4.644065"></trkpt>
<trkpt lat="54.213074" lon="-4.644915"></trkpt>
<trkpt lat="54.213177" lon="-4.646004"></trkpt>
<trkpt lat="54.213663" lon="-4.650191"></trkpt>
<trkpt lat="54.213792" lon="-4.651187"></trkpt>
<trkpt lat="54.214011" lon="-4.653378"></trkpt>
<trkpt lat="54.214176" lon="-4.654897"></trkpt>
<trkpt lat="54.214222" lon="-4.655181"></trkpt>
<trkpt lat="54.214964" lon="-4.658408"></trkpt>
<trkpt lat="54.215882" lon="-4.662251"></trkpt>
<trkpt lat="54.216387" lon="-4.664495"></trkpt>
<trkpt lat="54.21657" lon="-4.6652"></trkpt>
<trkpt lat="54.216716" lon="-4.665564"></trkpt>
<trkpt lat="54.216856" lon="-4.665984"></trkpt>
<trkpt lat="54.216895" lon="-4.666167"></trkpt>
<trkpt lat="54.2171" lon="-4.667533"></trkpt>
<trkpt lat="54.217175" lon="-4.66786"></trkpt>
<trkpt lat="54.21956" lon="-4.676566"></trkpt>
<trkpt lat="54.219969" lon="-4.678297"></trkpt>
<trkpt lat="54.219978" lon="-4.67851"></trkpt>
<trkpt lat="54.219966" lon="-4.678594"><time>2025-09-04T15:48:40Z</time></trkpt>
<trkpt lat="54.219947" lon="-4.678712"></trkpt>
<trkpt lat="54.219962" lon="-4.678784"></trkpt>
<trkpt lat="54.220047" lon="-4.678895"></trkpt>
<trkpt lat="54.220128" lon="-4.679055"></trkpt>
<trkpt lat="54.220524" lon="-4.680887"></trkpt>
<trkpt lat="54.220739" lon="-4.681952"><time>2025-09-04T15:49:00Z</time></trkpt>
<trkpt lat="54.22069" lon="-4.682059"></trkpt>
<trkpt lat="54.220703" lon="-4.682192"></trkpt>
<trkpt lat="54.220721" lon="-4.682228"></trkpt>
<trkpt lat="54.220799" lon="-4.682268"></trkpt>
<trkpt lat="54.22106" lon="-4.683938"></trkpt>
<trkpt lat="54.221375" lon="-4.685671"></trkpt>
<trkpt lat="54.222327" lon="-4.690383"><time>2025-09-04T15:49:48Z</time></trkpt>
</trkseg>
</trk>
</gpx>